{
  "norad_id": 59605,
  "name": "STARLINK-31767",
  "history": [
    {
      "epoch": "2026-03-28T20:50:14.827488",
      "apogee_km": 483.7574171772321,
      "perigee_km": 482.262922100741,
      "latitude_deg": 32.436998393179195,
      "longitude_deg": -136.15019168006256,
      "semi_major_axis_km": 6861.147169638986,
      "eccentricity": 0.00010891,
      "inclination_deg": 43.0028,
      "raan_deg": 289.7835,
      "arg_perigee_deg": 294.4213,
      "mean_anomaly_deg": 65.6525,
      "mean_motion_rev_day": 15.27593
    }
  ]
}